date:2024-08-30T12:40:38+00:00
validtle:1
satid:46591
launchyear:2020
epoch:24243.19355423
epochday:243
tleage:0
tleclassification:U
active:1
name:STARLINK-1755
meananomly:267.8331
meanmotion:15.0642
rightascension:0.0000
declination:0.0000
semimajoraxis:6925.3020307089
altitudeatperigee:546
altitudeatapogee:548
inclination:53.0535
eccentricity:0.0001255
argumentofperigree:92.2801
nickname:STARLINK-1755
idesg:20070BM 
cosparid:2020-070BM
altkm:548.07700880576
velkms:7.5891305739687
velkmh:27321
onumepoch:21591
onumnow:325255.29
otype:1
otypedesc:Low Earth Orbit (LEO)
status:1
timestamp:2024-08-30T04:38:43+00:00
nowjuliandate:2460553.0282284
nowepochdate:24243.5282175926
TLE:
STARLINK-1755
1 46591U 20070BM  24243.19355423  .00031574  00000+0  21282-2 0  9997
2 46591  53.0535 134.8269 0001255  92.2801 267.8331 15.06415855215914